[{"OBJECT_NAME":"STARLINK-31182","OBJECT_ID":"2024-044H","EPOCH":"2026-03-09T10:53:33.640512","MEAN_MOTION":15.27593573,"ECCENTRICITY":3.887e-5,"INCLINATION":42.998,"RA_OF_ASC_NODE":108.0029,"ARG_OF_PERICENTER":227.2517,"MEAN_ANOMALY":132.8302,"EPHEMERIS_TYPE":0,"CLASSIFICATION_TYPE":"U","NORAD_CAT_ID":59159,"ELEMENT_SET_NO":999,"REV_AT_EPOCH":11356,"BSTAR":-0.00011253326,"MEAN_MOTION_DOT":-3.358e-5,"MEAN_MOTION_DDOT":0},{"OBJECT_NAME":"STRIX-4","OBJECT_ID":"2024-137A","EPOCH":"2026-03-09T15:41:49.501824","MEAN_MOTION":15.29026224,"ECCENTRICITY":0.00168396,"INCLINATION":43.0134,"RA_OF_ASC_NODE":129.8162,"ARG_OF_PERICENTER":5.2738,"MEAN_ANOMALY":354.8289,"EPHEMERIS_TYPE":0,"CLASSIFICATION_TYPE":"U","NORAD_CAT_ID":60352,"ELEMENT_SET_NO":999,"REV_AT_EPOCH":8876,"BSTAR":0.00071819834,"MEAN_MOTION_DOT":0.0002053,"MEAN_MOTION_DDOT":0}]
