STARLINK-31182          
1 59159U 24044H   26068.45386158 -.00003358  00000+0 -11253-3 0  9990
2 59159  42.9980 108.0029 0000388 227.2517 132.8302 15.27593573113560
STRIX-4                 
1 60352U 24137A   26068.65404516  .00020530  00000+0  71820-3 0  9996
2 60352  43.0134 129.8162 0016840   5.2738 354.8289 15.29026223 88766
